EUTELSAT 7A             
1 28187U 04008A   25299.27708278  .00000116  00000+0  00000+0 0  9992
2 28187   5.2330  74.7883 0000747 124.9555 155.7172  1.00271358 79008
EUTELSAT 174A           
1 28924U 05052A   25299.22326887  .00000023  00000+0  00000+0 0  9995
2 28924   3.6228  79.4125 0006133 134.2559  75.6234  1.00269987 49987
EUTELSAT HOTBIRD 13B    
1 29270U 06032A   25299.26668909  .00000168  00000+0  00000+0 0  9997
2 29270   1.0525  84.7739 0003935 123.0583 316.1996  1.00274611 44965
EUTELSAT HOTBIRD 13C    
1 33459U 08065A   25299.25758904 -.00000087  00000+0  00000+0 0  9994
2 33459   2.3447  81.9446 0005952 151.7089 241.5017  1.00272231 45007
EUTELSAT 36B            
1 36101U 09065A   25299.19874208  .00000124  00000+0  00000+0 0  9992
2 36101   0.0503   6.5586 0005931 209.4617 300.8786  1.00270468 58360
EUTELSAT KA-SAT 9A      
1 37258U 10069A   25299.26192240  .00000075  00000+0  00000+0 0  9994
2 37258   0.0583 319.6094 0002471 220.0257 318.5879  1.00274779 41662
EUTELSAT 7 WEST A       
1 37816U 11051A   25299.25862904 -.00000048  00000+0  00000+0 0  9997
2 37816   0.0962  48.3661 0006290 159.1968 273.1595  1.00272583 51543
EUTELSAT 16A            
1 37836U 11057A   25299.26322241  .00000116  00000+0  00000+0 0  9996
2 37836   0.0655   5.0781 0005601 213.5558 287.0358  1.00270277  4987
